STARLINK-37110          
1 68222U 26053R   26099.25002315 -.02010606  00000+0 -16853-1 0  9990
2 68222  97.2844 335.1105 0001738  89.6688 337.2063 15.72866281  4923
STARLINK-37025          
1 68223U 26053S   26099.25002315 -.02009680  00000+0 -18126-1 0  9996
2 68223  97.2844 335.1066 0001704  89.0020 329.0930 15.71142120  4927
STARLINK-36977          
1 68224U 26053T   26099.25002315  .02496844  41353-2  84859-2 0  9993
2 68224  97.2832 335.1322 0000874  85.8643  32.8737 15.90890125  4821
STARLINK-36960          
1 68225U 26053U   26099.25002315 -.01974411  00000+0 -16209-1 0  9990
2 68225  97.2843 335.1187 0001812  83.9707   1.9616 15.73839402  4900
STARLINK-37038          
1 68226U 26053V   26099.25002315 -.02011755  00000+0 -17390-1 0  9997
2 68226  97.2845 335.1175 0001806  86.9581 356.1352 15.72146285  4907
STARLINK-37083          
1 68227U 26053W   26099.25002315 -.01975204  00000+0 -16113-1 0  9997
2 68227  97.2844 335.1208 0001813  89.4486   1.6298 15.73988186  4922
STARLINK-37050          
1 68228U 26053X   26099.25002315 -.02009932  00000+0 -16756-1 0  9998
2 68228  97.2845 335.1220 0001660  90.5446   2.8404 15.72993565  4903
STARLINK-37081          
1 68229U 26053Y   26099.26445821  .00109096  00000+0  72244-3 0  9997
2 68229  97.2856 335.0608 0001407  97.8223 262.3203 15.75207455  4883
STARLINK-37100          
1 68230U 26053Z   26099.25002315 -.02013260  00000+0 -17402-1 0  9999
2 68230  97.2844 335.1214 0001798  82.7478   8.9276 15.72150354  4925
STARLINK-37104          
1 68231U 26053AA  26099.25002315 -.02007690  00000+0 -17368-1 0  9991
2 68231  97.2844 335.1232 0001882  90.0458   5.6978 15.72121194  4923
STARLINK-37027          
1 68232U 26054A   26099.26574823  .00130277  00000+0  84052-3 0  9992
2 68232  53.1589 159.8912 0001245  69.6978 290.4177 15.75251919  3600
STARLINK-37132          
1 68233U 26054B   26099.28962016  .00186864  00000+0  92695-3 0  9995
2 68233  53.1574 159.3120 0001129  99.8331 260.2820 15.80942882  3613
STARLINK-37101          
1 68234U 26054C   26099.32044160  .00188262  00000+0  12024-2 0  9993
2 68234  53.1574 159.5171 0001301  77.5700 282.5466 15.75292113  3619
STARLINK-36963          
1 68235U 26054D   26099.32497992  .00182112  00000+0  11640-2 0  9990
2 68235  53.1585 159.5477 0001178  82.2616 277.8538 15.75293116  3613
STARLINK-37127          
1 68236U 26054E   26099.27061099  .00164979  00000+0  10571-2 0  9993
2 68236  53.1583 159.9230 0001356  74.2826 285.8344 15.75292751  3602
STARLINK-37095          
1 68237U 26054F   26099.26606102  .00162208  00000+0  10384-2 0  9998
2 68237  53.1589 159.8930 0001370  84.9172 275.2004 15.75322564  3605
