[{"OBJECT_NAME":"STARLINK-37110","OBJECT_ID":"2026-053R","EPOCH":"2026-04-09T06:00:02.000160","MEAN_MOTION":15.72866281,"ECCENTRICITY":0.00017385,"INCLINATION":97.2844,"RA_OF_ASC_NODE":335.1105,"ARG_OF_PERICENTER":89.6688,"MEAN_ANOMALY":337.2063,"EPHEMERIS_TYPE":0,"CLASSIFICATION_TYPE":"U","NORAD_CAT_ID":68222,"ELEMENT_SET_NO":999,"REV_AT_EPOCH":492,"BSTAR":-0.016853372,"MEAN_MOTION_DOT":-0.02010606,"MEAN_MOTION_DDOT":0},{"OBJECT_NAME":"STARLINK-37025","OBJECT_ID":"2026-053S","EPOCH":"2026-04-09T06:00:02.000160","MEAN_MOTION":15.7114212,"ECCENTRICITY":0.00017046,"INCLINATION":97.2844,"RA_OF_ASC_NODE":335.1066,"ARG_OF_PERICENTER":89.002,"MEAN_ANOMALY":329.093,"EPHEMERIS_TYPE":0,"CLASSIFICATION_TYPE":"U","NORAD_CAT_ID":68223,"ELEMENT_SET_NO":999,"REV_AT_EPOCH":492,"BSTAR":-0.018125809,"MEAN_MOTION_DOT":-0.0200968,"MEAN_MOTION_DDOT":0},{"OBJECT_NAME":"STARLINK-36977","OBJECT_ID":"2026-053T","EPOCH":"2026-04-09T06:00:02.000160","MEAN_MOTION":15.90890125,"ECCENTRICITY":8.742e-5,"INCLINATION":97.2832,"RA_OF_ASC_NODE":335.1322,"ARG_OF_PERICENTER":85.8643,"MEAN_ANOMALY":32.8737,"EPHEMERIS_TYPE":0,"CLASSIFICATION_TYPE":"U","NORAD_CAT_ID":68224,"ELEMENT_SET_NO":999,"REV_AT_EPOCH":482,"BSTAR":0.008485852,"MEAN_MOTION_DOT":0.02496844,"MEAN_MOTION_DDOT":0.0041352646},{"OBJECT_NAME":"STARLINK-36960","OBJECT_ID":"2026-053U","EPOCH":"2026-04-09T06:00:02.000160","MEAN_MOTION":15.73839402,"ECCENTRICITY":0.00018123,"INCLINATION":97.2843,"RA_OF_ASC_NODE":335.1187,"ARG_OF_PERICENTER":83.9707,"MEAN_ANOMALY":1.9616,"EPHEMERIS_TYPE":0,"CLASSIFICATION_TYPE":"U","NORAD_CAT_ID":68225,"ELEMENT_SET_NO":999,"REV_AT_EPOCH":490,"BSTAR":-0.016209454,"MEAN_MOTION_DOT":-0.01974411,"MEAN_MOTION_DDOT":0},{"OBJECT_NAME":"STARLINK-37038","OBJECT_ID":"2026-053V","EPOCH":"2026-04-09T06:00:02.000160","MEAN_MOTION":15.72146285,"ECCENTRICITY":0.00018065,"INCLINATION":97.2845,"RA_OF_ASC_NODE":335.1175,"ARG_OF_PERICENTER":86.9581,"MEAN_ANOMALY":356.1352,"EPHEMERIS_TYPE":0,"CLASSIFICATION_TYPE":"U","NORAD_CAT_ID":68226,"ELEMENT_SET_NO":999,"REV_AT_EPOCH":490,"BSTAR":-0.017390234,"MEAN_MOTION_DOT":-0.02011755,"MEAN_MOTION_DDOT":0},{"OBJECT_NAME":"STARLINK-37083","OBJECT_ID":"2026-053W","EPOCH":"2026-04-09T06:00:02.000160","MEAN_MOTION":15.73988186,"ECCENTRICITY":0.00018138,"INCLINATION":97.2844,"RA_OF_ASC_NODE":335.1208,"ARG_OF_PERICENTER":89.4486,"MEAN_ANOMALY":1.6298,"EPHEMERIS_TYPE":0,"CLASSIFICATION_TYPE":"U","NORAD_CAT_ID":68227,"ELEMENT_SET_NO":999,"REV_AT_EPOCH":492,"BSTAR":-0.016112711,"MEAN_MOTION_DOT":-0.01975204,"MEAN_MOTION_DDOT":0},{"OBJECT_NAME":"STARLINK-37050","OBJECT_ID":"2026-053X","EPOCH":"2026-04-09T06:00:02.000160","MEAN_MOTION":15.72993565,"ECCENTRICITY":0.00016601,"INCLINATION":97.2845,"RA_OF_ASC_NODE":335.122,"ARG_OF_PERICENTER":90.5446,"MEAN_ANOMALY":2.8404,"EPHEMERIS_TYPE":0,"CLASSIFICATION_TYPE":"U","NORAD_CAT_ID":68228,"ELEMENT_SET_NO":999,"REV_AT_EPOCH":490,"BSTAR":-0.01675596,"MEAN_MOTION_DOT":-0.02009932,"MEAN_MOTION_DDOT":0},{"OBJECT_NAME":"STARLINK-37081","OBJECT_ID":"2026-053Y","EPOCH":"2026-04-09T06:20:49.189344","MEAN_MOTION":15.75207455,"ECCENTRICITY":0.00014075,"INCLINATION":97.2856,"RA_OF_ASC_NODE":335.0608,"ARG_OF_PERICENTER":97.8223,"MEAN_ANOMALY":262.3203,"EPHEMERIS_TYPE":0,"CLASSIFICATION_TYPE":"U","NORAD_CAT_ID":68229,"ELEMENT_SET_NO":999,"REV_AT_EPOCH":488,"BSTAR":0.00072244432,"MEAN_MOTION_DOT":0.00109096,"MEAN_MOTION_DDOT":0},{"OBJECT_NAME":"STARLINK-37100","OBJECT_ID":"2026-053Z","EPOCH":"2026-04-09T06:00:02.000160","MEAN_MOTION":15.72150354,"ECCENTRICITY":0.00017988,"INCLINATION":97.2844,"RA_OF_ASC_NODE":335.1214,"ARG_OF_PERICENTER":82.7478,"MEAN_ANOMALY":8.9276,"EPHEMERIS_TYPE":0,"CLASSIFICATION_TYPE":"U","NORAD_CAT_ID":68230,"ELEMENT_SET_NO":999,"REV_AT_EPOCH":492,"BSTAR":-0.017402035,"MEAN_MOTION_DOT":-0.0201326,"MEAN_MOTION_DDOT":0},{"OBJECT_NAME":"STARLINK-37104","OBJECT_ID":"2026-053AA","EPOCH":"2026-04-09T06:00:02.000160","MEAN_MOTION":15.72121194,"ECCENTRICITY":0.0001882,"INCLINATION":97.2844,"RA_OF_ASC_NODE":335.1232,"ARG_OF_PERICENTER":90.0458,"MEAN_ANOMALY":5.6978,"EPHEMERIS_TYPE":0,"CLASSIFICATION_TYPE":"U","NORAD_CAT_ID":68231,"ELEMENT_SET_NO":999,"REV_AT_EPOCH":492,"BSTAR":-0.017368319,"MEAN_MOTION_DOT":-0.0200769,"MEAN_MOTION_DDOT":0},{"OBJECT_NAME":"STARLINK-37027","OBJECT_ID":"2026-054A","EPOCH":"2026-04-09T06:22:40.647072","MEAN_MOTION":15.75251919,"ECCENTRICITY":0.00012457,"INCLINATION":53.1589,"RA_OF_ASC_NODE":159.8912,"ARG_OF_PERICENTER":69.6978,"MEAN_ANOMALY":290.4177,"EPHEMERIS_TYPE":0,"CLASSIFICATION_TYPE":"U","NORAD_CAT_ID":68232,"ELEMENT_SET_NO":999,"REV_AT_EPOCH":360,"BSTAR":0.00084052281,"MEAN_MOTION_DOT":0.00130277,"MEAN_MOTION_DDOT":0},{"OBJECT_NAME":"STARLINK-37132","OBJECT_ID":"2026-054B","EPOCH":"2026-04-09T06:57:03.181824","MEAN_MOTION":15.80942882,"ECCENTRICITY":0.00011296,"INCLINATION":53.1574,"RA_OF_ASC_NODE":159.312,"ARG_OF_PERICENTER":99.8331,"MEAN_ANOMALY":260.282,"EPHEMERIS_TYPE":0,"CLASSIFICATION_TYPE":"U","NORAD_CAT_ID":68233,"ELEMENT_SET_NO":999,"REV_AT_EPOCH":361,"BSTAR":0.00092695115,"MEAN_MOTION_DOT":0.00186864,"MEAN_MOTION_DDOT":0},{"OBJECT_NAME":"STARLINK-37101","OBJECT_ID":"2026-054C","EPOCH":"2026-04-09T07:41:26.154240","MEAN_MOTION":15.75292113,"ECCENTRICITY":0.00013014,"INCLINATION":53.1574,"RA_OF_ASC_NODE":159.5171,"ARG_OF_PERICENTER":77.57,"MEAN_ANOMALY":282.5466,"EPHEMERIS_TYPE":0,"CLASSIFICATION_TYPE":"U","NORAD_CAT_ID":68234,"ELEMENT_SET_NO":999,"REV_AT_EPOCH":361,"BSTAR":0.0012023572,"MEAN_MOTION_DOT":0.00188262,"MEAN_MOTION_DDOT":0},{"OBJECT_NAME":"STARLINK-36963","OBJECT_ID":"2026-054D","EPOCH":"2026-04-09T07:47:58.265088","MEAN_MOTION":15.75293116,"ECCENTRICITY":0.00011787,"INCLINATION":53.1585,"RA_OF_ASC_NODE":159.5477,"ARG_OF_PERICENTER":82.2616,"MEAN_ANOMALY":277.8538,"EPHEMERIS_TYPE":0,"CLASSIFICATION_TYPE":"U","NORAD_CAT_ID":68235,"ELEMENT_SET_NO":999,"REV_AT_EPOCH":361,"BSTAR":0.0011640192,"MEAN_MOTION_DOT":0.00182112,"MEAN_MOTION_DDOT":0},{"OBJECT_NAME":"STARLINK-37127","OBJECT_ID":"2026-054E","EPOCH":"2026-04-09T06:29:40.789536","MEAN_MOTION":15.75292751,"ECCENTRICITY":0.0001356,"INCLINATION":53.1583,"RA_OF_ASC_NODE":159.923,"ARG_OF_PERICENTER":74.2826,"MEAN_ANOMALY":285.8344,"EPHEMERIS_TYPE":0,"CLASSIFICATION_TYPE":"U","NORAD_CAT_ID":68236,"ELEMENT_SET_NO":999,"REV_AT_EPOCH":360,"BSTAR":0.0010570539,"MEAN_MOTION_DOT":0.00164979,"MEAN_MOTION_DDOT":0},{"OBJECT_NAME":"STARLINK-37095","OBJECT_ID":"2026-054F","EPOCH":"2026-04-09T06:23:07.672128","MEAN_MOTION":15.75322564,"ECCENTRICITY":0.00013708,"INCLINATION":53.1589,"RA_OF_ASC_NODE":159.893,"ARG_OF_PERICENTER":84.9172,"MEAN_ANOMALY":275.2004,"EPHEMERIS_TYPE":0,"CLASSIFICATION_TYPE":"U","NORAD_CAT_ID":68237,"ELEMENT_SET_NO":999,"REV_AT_EPOCH":360,"BSTAR":0.0010383653,"MEAN_MOTION_DOT":0.00162208,"MEAN_MOTION_DDOT":0}]
